; 这是一个用于测试 gcode_analyzer.py 的样例文件
; generated by make_sample_gcode.py
; printer_model = TestPrinter FDM
; filament_type = PLA
; layer_height = 0.2
; nozzle_diameter = 0.4
; 预计打印时间 1h 5m

M82
M104 S210
M140 S60
M109 S210
M190 S60
G28 ; home all axes
G90 ; absolute positioning
G92 E0 ; 复位挤出机计数

;LAYER_CHANGE
;Z: 0.2
G1 Z0.2 F600 ; 抬到第 1 层
M106 S255 ; 风扇全开
G1 X20.00 Y0 E25.000 F1800
G1 X20.00 Y20.00 E50.000
G1 X0 Y20.00 E75.000
G1 X0 Y0 E100.000
G0 X10 Y10 F6000 ; 空驶

;LAYER_CHANGE
;Z: 0.4
G1 Z0.4 F600 ; 抬到第 2 层
M106 S255 ; 风扇全开
G1 X20.00 Y0 E125.000 F1800
G1 X20.00 Y20.00 E150.000
G1 X0 Y20.00 E175.000
G1 X0 Y0 E200.000
G0 X10 Y10 F6000 ; 空驶

;LAYER_CHANGE
;Z: 0.6
G1 Z0.6 F600 ; 抬到第 3 层
M106 S255 ; 风扇全开
G1 X20.00 Y0 E225.000 F1800
G1 X20.00 Y20.00 E250.000
G1 X0 Y20.00 E275.000
G1 X0 Y0 E300.000
G0 X10 Y10 F6000 ; 空驶

;LAYER_CHANGE
;Z: 0.8
G1 Z0.8 F600 ; 抬到第 4 层
M106 S255 ; 风扇全开
G1 X20.00 Y0 E325.000 F1800
G1 X20.00 Y20.00 E350.000
G1 X0 Y20.00 E375.000
G1 X0 Y0 E400.000
G0 X10 Y10 F6000 ; 空驶

;LAYER_CHANGE
;Z: 1.0
G1 Z1.0 F600 ; 抬到第 5 层
M106 S255 ; 风扇全开
G1 X20.00 Y0 E425.000 F1800
G1 X20.00 Y20.00 E450.000
G1 X0 Y20.00 E475.000
G1 X0 Y0 E500.000
G0 X10 Y10 F6000 ; 空驶

;LAYER_CHANGE
;Z: 1.2
G1 Z1.2 F600 ; 抬到第 6 层
M106 S255 ; 风扇全开
G1 X20.00 Y0 E525.000 F1800
G1 X20.00 Y20.00 E550.000
G1 X0 Y20.00 E575.000
G1 X0 Y0 E600.000
G0 X10 Y10 F6000 ; 空驶

;LAYER_CHANGE
;Z: 1.4
G1 Z1.4 F600 ; 抬到第 7 层
M106 S255 ; 风扇全开
G1 X20.00 Y0 E625.000 F1800
G1 X20.00 Y20.00 E650.000
G1 X0 Y20.00 E675.000
G1 X0 Y0 E700.000
G0 X10 Y10 F6000 ; 空驶

;LAYER_CHANGE
;Z: 1.6
G1 Z1.6 F600 ; 抬到第 8 层
M106 S255 ; 风扇全开
G1 X20.00 Y0 E725.000 F1800
G1 X20.00 Y20.00 E750.000
G1 X0 Y20.00 E775.000
G1 X0 Y0 E800.000
G0 X10 Y10 F6000 ; 空驶

;LAYER_CHANGE
;Z: 1.8
G1 Z1.8 F600 ; 抬到第 9 层
M106 S255 ; 风扇全开
G1 X20.00 Y0 E825.000 F1800
G1 X20.00 Y20.00 E850.000
G1 X0 Y20.00 E875.000
G1 X0 Y0 E900.000
G0 X10 Y10 F6000 ; 空驶

;LAYER_CHANGE
;Z: 2.0
G1 Z2.0 F600 ; 抬到第 10 层
M106 S255 ; 风扇全开
G1 X20.00 Y0 E925.000 F1800
G1 X20.00 Y20.00 E950.000
G1 X0 Y20.00 E975.000
G1 X0 Y0 E1000.000
G0 X10 Y10 F6000 ; 空驶

;LAYER_CHANGE
;Z: 2.2
G1 Z2.2 F600 ; 抬到第 11 层
M106 S255 ; 风扇全开
G1 X20.00 Y0 E1025.000 F1800
G1 X20.00 Y20.00 E1050.000
G1 X0 Y20.00 E1075.000
G1 X0 Y0 E1100.000
G0 X10 Y10 F6000 ; 空驶

;LAYER_CHANGE
;Z: 2.4
G1 Z2.4 F600 ; 抬到第 12 层
M106 S255 ; 风扇全开
G1 X20.00 Y0 E1125.000 F1800
G1 X20.00 Y20.00 E1150.000
G1 X0 Y20.00 E1175.000
G1 X0 Y0 E1200.000
G0 X10 Y10 F6000 ; 空驶

M104 S0 ; 关喷嘴加热
M140 S0 ; 关热床加热
M106 S0 ; 关风扇
G28 X Y ; 归位
M84 ; 关步进电机
